COSMOS 2433 (720)       
1 32275U 07052A   22237.89966139 -.00000074  00000+0  00000+0 0  9990
2 32275  66.0796   2.3673 0002755 194.5810  63.0560  2.13104215115447
COSMOS 2432 (719)       
1 32276U 07052B   22237.86784162 -.00000074  00000+0  00000+0 0  9992
2 32276  66.0947   2.4705 0007740 332.5542 208.8074  2.13103374115442
COSMOS 2434 (721)       
1 32393U 07065A   22237.47163606  .00000072  00000+0  00000+0 0  9994
2 32393  64.3756 239.0697 0000644 174.2947   4.7806  2.13103081114142
COSMOS 2436 (723)       
1 32395U 07065C   22238.12683903  .00000069  00000+0  00000+0 0  9992
2 32395  64.3841 239.1058 0014828 350.4244 107.1438  2.13102906114096
COSMOS 2456 (730)       
1 36111U 09070A   22238.20022675  .00000023  00000+0  00000+0 0  9992
2 36111  64.3689 118.6595 0003454 320.1242 222.5227  2.13099372 98820
COSMOS 2457 (733)       
1 36112U 09070B   22238.43828748  .00000025  00000+0  00000+0 0  9995
2 36112  64.3522 118.5249 0004869 159.9331 333.1857  2.13101558 98839
COSMOS 2461 (735)       
1 36401U 10007B   22237.33401127 -.00000077  00000+0  00000+0 0  9992
2 36401  65.9646   1.2143 0019030  12.1255  28.8992  2.13103703 97163
COSMOS 2460 (732)       
1 36402U 10007C   22237.87301477 -.00000074  00000+0  00000+0 0  9996
2 36402  65.9517   1.1457 0002164 123.5250 280.0976  2.13106433 97178
COSMOS 2464 (736)       
1 37139U 10041C   22238.45281870  .00000066  00000+0  00000+0 0  9991
2 37139  63.9749 238.0772 0028048   5.6205  63.8985  2.13100786 93247
COSMOS 2476 (744)       
1 37867U 11064A   22237.39077104  .00000013  00000+0  00000+0 0  9992
2 37867  64.6559 120.0702 0021030 235.7419 312.0039  2.13101854 84158
COSMOS 2477 (745)       
1 37868U 11064B   22237.63587421  .00000016  00000+0  00000+0 0  9991
2 37868  64.6642 120.1271 0018479 236.7143 317.1510  2.13101741 84113
COSMOS 2475 (743)       
1 37869U 11064C   22237.67688388  .00000017  00000+0  00000+0 0  9991
2 37869  64.6707 120.1341 0022535 254.9702 288.4572  2.13102126 84122
COSMOS 2485 (747)       
1 39155U 13019A   22238.25114603  .00000023  00000+0  00000+0 0  9999
2 39155  64.8192 120.4843 0021643 231.7249 300.4752  2.13102042 72646
COSMOS 2492 (754)       
1 39620U 14012A   22237.63304142 -.00000076  00000+0  00000+0 0  9999
2 39620  65.8373   0.8252 0010745 326.1475 126.2676  2.13103169 65586
COSMOS 2500 (755)       
1 40001U 14032A   22238.40296331 -.00000072  00000+0  00000+0 0  9998
2 40001  65.7751   0.6547 0007177 185.4830 356.0618  2.13102323 63815
COSMOS 2501 (702K)      
1 40315U 14075A   22237.60797701  .00000069  00000+0  00000+0 0  9996
2 40315  63.6820 238.7487 0019569 212.3971 247.6047  2.13101444 60202
COSMOS 2514 (751)       
1 41330U 16008A   22237.45721513 -.00000077  00000+0  00000+0 0  9993
2 41330  65.5761   0.3623 0010987 202.7738 157.1840  2.13102810 50965
COSMOS 2516 (753)       
1 41554U 16032A   22237.91004832  .00000069  00000+0  00000+0 0  9997
2 41554  63.9084 239.0336 0015037 216.4672  35.0425  2.13106408 48579
COSMOS 2522 (752)       
1 42939U 17055A   22238.23799527  .00000068  00000+0  00000+0 0  9998
2 42939  64.1417 239.4377 0010175 244.1643 114.5717  2.13101987 38330
COSMOS 2527 (756)       
1 43508U 18053A   22237.87814287  .00000019  00000+0  00000+0 0  9996
2 43508  64.9824 120.5116 0007586 227.9792 246.7774  2.13102528 32629
COSMOS 2529 (757)       
1 43687U 18086A   22237.45466118  .00000072  00000+0  00000+0 0  9999
2 43687  64.3569 239.7998 0011925 263.0249 170.2924  2.13102116 29636
COSMOS 2534 (758)       
1 44299U 19030A   22237.72925007  .00000071  00000+0  00000+0 0  9995
2 44299  64.4299 239.6817 0014176 281.1587 137.3401  2.13101925 25281
COSMOS 2544 (759)       
1 44850U 19088A   22237.81275494  .00000019  00000+0  16595+1 0  9998
2 44850  64.9678 120.3643 0011870 258.7998 209.2009  2.13102270 21055
COSMOS 2545 (760)       
1 45358U 20018A   22237.86160618 -.00000076  00000+0  00000+0 0  9990
2 45358  64.9140   0.8994 0008054 233.6107 121.2628  2.13102672 19006
COSMOS 2547 (705K)      
1 46805U 20075A   22237.85354846  .00000071  00000+0  00000+0 0  9992
2 46805  64.6540 239.1222 0008736 245.9334 315.8560  2.13103016 14252
COSMOS 2557 (706K)      
1 52984U 22075A   22237.73159870 -.00000076  00000+0  10000-3 0  9997
2 52984  64.8195   3.1045 0010603 279.0584  67.2166  2.13101756  1040
